{
  "norad_id": 53823,
  "name": "STARLINK-4748",
  "history": [
    {
      "epoch": "2026-03-28T15:25:36.197184",
      "apogee_km": 540.6171326473414,
      "perigee_km": 538.8323243213908,
      "latitude_deg": -36.37426269470333,
      "longitude_deg": -15.993114239769056,
      "semi_major_axis_km": 6917.861728484366,
      "eccentricity": 0.000129,
      "inclination_deg": 53.2165,
      "raan_deg": 174.0215,
      "arg_perigee_deg": 82.7106,
      "mean_anomaly_deg": 277.4033,
      "mean_motion_rev_day": 15.08846105
    }
  ]
}