{"fetched_at":"2026-03-29T16:36:15Z","count":15609,"tles":[{"name":"STARLINK-4748","line1":"1 53823U 22114F   26087.64278006  .00000468  00000+0  47467-4 0  9996","line2":"2 53823  53.2165 174.0215 0001290  82.7106 277.4033 15.08846105196326","category":"Starlink"}]}